{
  "norad_id": 65648,
  "name": "STARLINK-34868",
  "history": [
    {
      "epoch": "2026-03-28T20:25:05.089440",
      "apogee_km": 475.88294144138945,
      "perigee_km": 474.53694410182925,
      "latitude_deg": 49.25030208908672,
      "longitude_deg": 106.47232160018757,
      "semi_major_axis_km": 6853.346942771609,
      "eccentricity": 9.82e-05,
      "inclination_deg": 53.1573,
      "raan_deg": 218.1455,
      "arg_perigee_deg": 61.6184,
      "mean_anomaly_deg": 298.4915,
      "mean_motion_rev_day": 15.30201717
    }
  ]
}